0 GGSE 1 (GGRS)
1 00728U 64001B   13282.15612505  .00000020  00000-0  52689-4 0  4451
2 00728 069.9066 094.3185 0014013 205.5378 271.3252 13.96836654532849
0 GGSE 1 (GGRS)
1 00728U 64001B   13283.15773329  .00000047  00000-0  72266-4 0  4467
2 00728 069.9066 092.1644 0013946 204.3745 267.8987 13.96837284532984
0 GGSE 1 (GGRS)
1 00728U 64001B   13284.15978162  .00000070  00000-0  89231-4 0  4477
2 00728 069.9068 090.0095 0013885 203.1798 266.7184 13.96837457533126
0 GGSE 1 (GGRS)
1 00728U 64001B   13285.50965582  .00000050  00000-0  74641-4 0  4487
2 00728 069.9070 087.1065 0013805 201.5268 214.6325 13.96837588533314
0 GGSE 1 (GGRS)
1 00728U 64001B   13286.73375154  .00000047  00000-0  72548-4 0  4494
2 00728 069.9073 084.4741 0013754 200.1865 249.9054 13.96837749533486
0 GGSE 1 (GGRS)
1 00728U 64001B   13287.80323153  .00000024  00000-0  55909-4 0  4504
2 00728 069.9076 082.1742 0013677 198.8442 227.8741 13.96838356533633
0 GGSE 1 (GGRS)
1 00728U 64001B   13288.81342987  .00000023  00000-0  55204-4 0  4510
2 00728 069.9079 080.0018 0013612 197.5710 267.7478 13.96838755533770
0 GGSE 1 (GGRS)
1 00728U 64001B   13289.81594050  .00000045  00000-0  70674-4 0  4524
2 00728 069.9082 077.8461 0013541 196.3479 268.9253 13.96839036533913
0 GGSE 1 (GGRS)
1 00728U 64001B   13290.88434154  .00000084  00000-0  98749-4 0  4538
2 00728 069.9083 075.5487 0013472 194.9990 241.4844 13.96838935534068
0 GGSE 1 (GGRS)
1 00728U 64001B   13292.09601919  .00000117  00000-0  12286-3 0  4547
2 00728 069.9085 072.9433 0013399 193.5479 214.4459 13.96838819534239
0 GGSE 1 (GGRS)
1 00728U 64001B   13293.38933074  .00000102  00000-0  11166-3 0  4551
2 00728 069.9085 070.1623 0013324 192.0644 237.8377 13.96839287534414
0 GGSE 1 (GGRS)
1 00728U 64001B   13294.53508701  .00000072  00000-0  90393-4 0  4561
2 00728 069.9086 067.6987 0013246 190.7430 239.2580 13.96840006534570
0 GGSE 1 (GGRS)
1 00728U 64001B   13295.83251278  .00000087  00000-0  10120-3 0  4575
2 00728 069.9087 064.9089 0013158 189.0241 283.5723 13.96840620534750
